[{"OBJECT_NAME":"ONEWEB-0572","OBJECT_ID":"2023-004M","EPOCH":"2025-12-01T15:06:44.200800","MEAN_MOTION":13.17648279,"ECCENTRICITY":0.0001608,"INCLINATION":87.913,"RA_OF_ASC_NODE":45.1527,"ARG_OF_PERICENTER":96.1494,"MEAN_ANOMALY":263.9821,"EPHEMERIS_TYPE":0,"CLASSIFICATION_TYPE":"U","NORAD_CAT_ID":55151,"ELEMENT_SET_NO":999,"REV_AT_EPOCH":14146,"BSTAR":4.9337e-5,"MEAN_MOTION_DOT":3.2e-7,"MEAN_MOTION_DDOT":0},{"OBJECT_NAME":"ONEWEB-0573","OBJECT_ID":"2023-004N","EPOCH":"2025-12-01T14:35:13.843968","MEAN_MOTION":13.18684154,"ECCENTRICITY":0.0001273,"INCLINATION":87.9171,"RA_OF_ASC_NODE":14.7353,"ARG_OF_PERICENTER":71.9568,"MEAN_ANOMALY":288.1702,"EPHEMERIS_TYPE":0,"CLASSIFICATION_TYPE":"U","NORAD_CAT_ID":55152,"ELEMENT_SET_NO":999,"REV_AT_EPOCH":14365,"BSTAR":7.1032e-5,"MEAN_MOTION_DOT":4.1e-7,"MEAN_MOTION_DDOT":0},{"OBJECT_NAME":"ONEWEB-0588","OBJECT_ID":"2023-004P","EPOCH":"2025-12-01T19:53:31.637760","MEAN_MOTION":13.18685582,"ECCENTRICITY":0.0001336,"INCLINATION":87.9182,"RA_OF_ASC_NODE":14.6847,"ARG_OF_PERICENTER":91.8974,"MEAN_ANOMALY":268.2311,"EPHEMERIS_TYPE":0,"CLASSIFICATION_TYPE":"U","NORAD_CAT_ID":55153,"ELEMENT_SET_NO":999,"REV_AT_EPOCH":14368,"BSTAR":0.00026662,"MEAN_MOTION_DOT":1.18e-6,"MEAN_MOTION_DDOT":0},{"OBJECT_NAME":"ONEWEB-0598","OBJECT_ID":"2023-004Q","EPOCH":"2025-12-01T18:43:56.465760","MEAN_MOTION":13.11415561,"ECCENTRICITY":0.0001757,"INCLINATION":87.886,"RA_OF_ASC_NODE":60.387,"ARG_OF_PERICENTER":82.7496,"MEAN_ANOMALY":277.3832,"EPHEMERIS_TYPE":0,"CLASSIFICATION_TYPE":"U","NORAD_CAT_ID":55154,"ELEMENT_SET_NO":999,"REV_AT_EPOCH":14002,"BSTAR":0.00082512,"MEAN_MOTION_DOT":3.05e-6,"MEAN_MOTION_DDOT":0},{"OBJECT_NAME":"ONEWEB-0599","OBJECT_ID":"2023-004R","EPOCH":"2025-12-01T16:00:11.412864","MEAN_MOTION":13.17648225,"ECCENTRICITY":0.0001878,"INCLINATION":87.9124,"RA_OF_ASC_NODE":45.1473,"ARG_OF_PERICENTER":96.2915,"MEAN_ANOMALY":263.843,"EPHEMERIS_TYPE":0,"CLASSIFICATION_TYPE":"U","NORAD_CAT_ID":55155,"ELEMENT_SET_NO":999,"REV_AT_EPOCH":14147,"BSTAR":-5.4614e-5,"MEAN_MOTION_DOT":-8.0e-8,"MEAN_MOTION_DDOT":0},{"OBJECT_NAME":"ONEWEB-0614","OBJECT_ID":"2023-004S","EPOCH":"2025-12-01T18:36:37.622016","MEAN_MOTION":13.1141648,"ECCENTRICITY":0.000143,"INCLINATION":87.8858,"RA_OF_ASC_NODE":60.3973,"ARG_OF_PERICENTER":113.9534,"MEAN_ANOMALY":246.1743,"EPHEMERIS_TYPE":0,"CLASSIFICATION_TYPE":"U","NORAD_CAT_ID":55156,"ELEMENT_SET_NO":999,"REV_AT_EPOCH":13996,"BSTAR":0.0013247,"MEAN_MOTION_DOT":4.82e-6,"MEAN_MOTION_DDOT":0},{"OBJECT_NAME":"ONEWEB-0616","OBJECT_ID":"2023-004T","EPOCH":"2025-12-01T17:00:56.405088","MEAN_MOTION":13.17648539,"ECCENTRICITY":0.0002737,"INCLINATION":87.9131,"RA_OF_ASC_NODE":45.1299,"ARG_OF_PERICENTER":100.0502,"MEAN_ANOMALY":260.0939,"EPHEMERIS_TYPE":0,"CLASSIFICATION_TYPE":"U","NORAD_CAT_ID":55157,"ELEMENT_SET_NO":999,"REV_AT_EPOCH":14169,"BSTAR":6.1906e-6,"MEAN_MOTION_DOT":1.5e-7,"MEAN_MOTION_DDOT":0},{"OBJECT_NAME":"ONEWEB-0617","OBJECT_ID":"2023-004U","EPOCH":"2025-12-01T18:19:31.897632","MEAN_MOTION":13.11417907,"ECCENTRICITY":0.0001307,"INCLINATION":87.8863,"RA_OF_ASC_NODE":60.3788,"ARG_OF_PERICENTER":104.8691,"MEAN_ANOMALY":255.2582,"EPHEMERIS_TYPE":0,"CLASSIFICATION_TYPE":"U","NORAD_CAT_ID":55158,"ELEMENT_SET_NO":999,"REV_AT_EPOCH":13998,"BSTAR":0.001104,"MEAN_MOTION_DOT":4.04e-6,"MEAN_MOTION_DDOT":0},{"OBJECT_NAME":"ONEWEB-0618","OBJECT_ID":"2023-004V","EPOCH":"2025-12-01T19:57:10.659168","MEAN_MOTION":15.10390009,"ECCENTRICITY":0.0011516,"INCLINATION":86.9087,"RA_OF_ASC_NODE":257.6466,"ARG_OF_PERICENTER":318.3365,"MEAN_ANOMALY":41.6995,"EPHEMERIS_TYPE":0,"CLASSIFICATION_TYPE":"U","NORAD_CAT_ID":55159,"ELEMENT_SET_NO":999,"REV_AT_EPOCH":15244,"BSTAR":0.00055756,"MEAN_MOTION_DOT":9.199e-5,"MEAN_MOTION_DDOT":0},{"OBJECT_NAME":"ONEWEB-0619","OBJECT_ID":"2023-004W","EPOCH":"2025-12-01T17:47:06.775296","MEAN_MOTION":13.17648285,"ECCENTRICITY":0.0001938,"INCLINATION":87.9129,"RA_OF_ASC_NODE":45.0975,"ARG_OF_PERICENTER":115.0749,"MEAN_ANOMALY":245.0584,"EPHEMERIS_TYPE":0,"CLASSIFICATION_TYPE":"U","NORAD_CAT_ID":55160,"ELEMENT_SET_NO":999,"REV_AT_EPOCH":14159,"BSTAR":-7.0095e-5,"MEAN_MOTION_DOT":-1.4e-7,"MEAN_MOTION_DDOT":0},{"OBJECT_NAME":"ONEWEB-0620","OBJECT_ID":"2023-004X","EPOCH":"2025-12-01T18:12:12.367008","MEAN_MOTION":13.11418481,"ECCENTRICITY":0.0001477,"INCLINATION":87.8864,"RA_OF_ASC_NODE":60.3994,"ARG_OF_PERICENTER":96.5427,"MEAN_ANOMALY":263.5869,"EPHEMERIS_TYPE":0,"CLASSIFICATION_TYPE":"U","NORAD_CAT_ID":55161,"ELEMENT_SET_NO":999,"REV_AT_EPOCH":13995,"BSTAR":0.00090524,"MEAN_MOTION_DOT":3.34e-6,"MEAN_MOTION_DDOT":0},{"OBJECT_NAME":"ONEWEB-0621","OBJECT_ID":"2023-004Y","EPOCH":"2025-12-01T18:51:15.505632","MEAN_MOTION":13.11415898,"ECCENTRICITY":0.0001634,"INCLINATION":87.8871,"RA_OF_ASC_NODE":60.3637,"ARG_OF_PERICENTER":111.7352,"MEAN_ANOMALY":248.395,"EPHEMERIS_TYPE":0,"CLASSIFICATION_TYPE":"U","NORAD_CAT_ID":55162,"ELEMENT_SET_NO":999,"REV_AT_EPOCH":13993,"BSTAR":0.00012767,"MEAN_MOTION_DOT":5.8e-7,"MEAN_MOTION_DDOT":0},{"OBJECT_NAME":"ONEWEB-0622","OBJECT_ID":"2023-004Z","EPOCH":"2025-12-01T17:08:42.819072","MEAN_MOTION":13.11413504,"ECCENTRICITY":9.36e-5,"INCLINATION":87.886,"RA_OF_ASC_NODE":60.3877,"ARG_OF_PERICENTER":119.4514,"MEAN_ANOMALY":240.6707,"EPHEMERIS_TYPE":0,"CLASSIFICATION_TYPE":"U","NORAD_CAT_ID":55163,"ELEMENT_SET_NO":999,"REV_AT_EPOCH":13991,"BSTAR":-0.00049422,"MEAN_MOTION_DOT":-1.62e-6,"MEAN_MOTION_DDOT":0},{"OBJECT_NAME":"ONEWEB-0623","OBJECT_ID":"2023-004AA","EPOCH":"2025-12-01T17:39:49.821120","MEAN_MOTION":13.17651165,"ECCENTRICITY":0.000138,"INCLINATION":87.9121,"RA_OF_ASC_NODE":45.1488,"ARG_OF_PERICENTER":129.2799,"MEAN_ANOMALY":230.8455,"EPHEMERIS_TYPE":0,"CLASSIFICATION_TYPE":"U","NORAD_CAT_ID":55164,"ELEMENT_SET_NO":999,"REV_AT_EPOCH":14158,"BSTAR":-4.0477e-5,"MEAN_MOTION_DOT":-3.0e-8,"MEAN_MOTION_DDOT":0},{"OBJECT_NAME":"ONEWEB-0624","OBJECT_ID":"2023-004AB","EPOCH":"2025-12-01T15:51:17.960256","MEAN_MOTION":13.12921467,"ECCENTRICITY":0.0001571,"INCLINATION":87.8945,"RA_OF_ASC_NODE":29.8657,"ARG_OF_PERICENTER":108.9456,"MEAN_ANOMALY":251.1843,"EPHEMERIS_TYPE":0,"CLASSIFICATION_TYPE":"U","NORAD_CAT_ID":55165,"ELEMENT_SET_NO":999,"REV_AT_EPOCH":14215,"BSTAR":-0.00038541,"MEAN_MOTION_DOT":-1.27e-6,"MEAN_MOTION_DDOT":0},{"OBJECT_NAME":"ONEWEB-0625","OBJECT_ID":"2023-004AC","EPOCH":"2025-12-01T17:25:14.291904","MEAN_MOTION":13.17651316,"ECCENTRICITY":0.0001872,"INCLINATION":87.912,"RA_OF_ASC_NODE":45.1459,"ARG_OF_PERICENTER":101.819,"MEAN_ANOMALY":258.3151,"EPHEMERIS_TYPE":0,"CLASSIFICATION_TYPE":"U","NORAD_CAT_ID":55166,"ELEMENT_SET_NO":999,"REV_AT_EPOCH":14157,"BSTAR":2.2052e-5,"MEAN_MOTION_DOT":2.1e-7,"MEAN_MOTION_DDOT":0},{"OBJECT_NAME":"ONEWEB-0626","OBJECT_ID":"2023-004AD","EPOCH":"2025-12-01T17:10:40.026720","MEAN_MOTION":13.17647923,"ECCENTRICITY":0.0001699,"INCLINATION":87.912,"RA_OF_ASC_NODE":45.1478,"ARG_OF_PERICENTER":84.6787,"MEAN_ANOMALY":275.4539,"EPHEMERIS_TYPE":0,"CLASSIFICATION_TYPE":"U","NORAD_CAT_ID":55167,"ELEMENT_SET_NO":999,"REV_AT_EPOCH":14157,"BSTAR":-0.00010328,"MEAN_MOTION_DOT":-2.7e-7,"MEAN_MOTION_DDOT":0}]
