ONEWEB-0572             
1 55151U 23004M   25335.62967825  .00000032  00000+0  49337-4 0  9993
2 55151  87.9130  45.1527 0001608  96.1494 263.9821 13.17648279141464
ONEWEB-0573             
1 55152U 23004N   25335.60779912  .00000041  00000+0  71032-4 0  9997
2 55152  87.9171  14.7353 0001273  71.9568 288.1702 13.18684154143653
ONEWEB-0588             
1 55153U 23004P   25335.82883840  .00000118  00000+0  26662-3 0  9991
2 55153  87.9182  14.6847 0001336  91.8974 268.2311 13.18685582143689
ONEWEB-0598             
1 55154U 23004Q   25335.78051465  .00000305  00000+0  82512-3 0  9991
2 55154  87.8860  60.3870 0001757  82.7496 277.3832 13.11415561140026
ONEWEB-0599             
1 55155U 23004R   25335.66679876 -.00000008  00000+0 -54614-4 0  9996
2 55155  87.9124  45.1473 0001878  96.2915 263.8430 13.17648225141476
ONEWEB-0614             
1 55156U 23004S   25335.77543544  .00000482  00000+0  13247-2 0  9990
2 55156  87.8858  60.3973 0001430 113.9534 246.1743 13.11416480139964
ONEWEB-0616             
1 55157U 23004T   25335.70898617  .00000015  00000+0  61906-5 0  9998
2 55157  87.9131  45.1299 0002737 100.0502 260.0939 13.17648539141698
ONEWEB-0617             
1 55158U 23004U   25335.76356363  .00000404  00000+0  11040-2 0  9995
2 55158  87.8863  60.3788 0001307 104.8691 255.2582 13.11417907139981
ONEWEB-0618             
1 55159U 23004V   25335.83137337  .00009199  00000+0  55756-3 0  9995
2 55159  86.9087 257.6466 0011516 318.3365  41.6995 15.10390009152442
ONEWEB-0619             
1 55160U 23004W   25335.74105064 -.00000014  00000+0 -70095-4 0  9992
2 55160  87.9129  45.0975 0001938 115.0749 245.0584 13.17648285141596
ONEWEB-0620             
1 55161U 23004X   25335.75847647  .00000334  00000+0  90524-3 0  9995
2 55161  87.8864  60.3994 0001477  96.5427 263.5869 13.11418481139952
ONEWEB-0621             
1 55162U 23004Y   25335.78559613  .00000058  00000+0  12767-3 0  9998
2 55162  87.8871  60.3637 0001634 111.7352 248.3950 13.11415898139936
ONEWEB-0622             
1 55163U 23004Z   25335.71438448 -.00000162  00000+0 -49422-3 0  9990
2 55163  87.8860  60.3877 0000936 119.4514 240.6707 13.11413504139915
ONEWEB-0623             
1 55164U 23004AA  25335.73599330 -.00000003  00000+0 -40477-4 0  9997
2 55164  87.9121  45.1488 0001380 129.2799 230.8455 13.17651165141584
ONEWEB-0624             
1 55165U 23004AB  25335.66062454 -.00000127  00000+0 -38541-3 0  9997
2 55165  87.8945  29.8657 0001571 108.9456 251.1843 13.12921467142152
ONEWEB-0625             
1 55166U 23004AC  25335.72585986  .00000021  00000+0  22052-4 0  9997
2 55166  87.9120  45.1459 0001872 101.8190 258.3151 13.17651316141575
ONEWEB-0626             
1 55167U 23004AD  25335.71574105 -.00000027  00000+0 -10328-3 0  9998
2 55167  87.9120  45.1478 0001699  84.6787 275.4539 13.17647923141573
